[{"OBJECT_NAME":"LANDSAT 8","OBJECT_ID":"2013-008A","EPOCH":"2026-04-05T20:28:48.224352","MEAN_MOTION":14.57111691,"ECCENTRICITY":0.0001215,"INCLINATION":98.1872,"RA_OF_ASC_NODE":167.1265,"ARG_OF_PERICENTER":91.1523,"MEAN_ANOMALY":268.9815,"EPHEMERIS_TYPE":0,"CLASSIFICATION_TYPE":"U","NORAD_CAT_ID":39084,"ELEMENT_SET_NO":999,"REV_AT_EPOCH":68736,"BSTAR":0.00011627,"MEAN_MOTION_DOT":4.79e-6,"MEAN_MOTION_DDOT":0},{"OBJECT_NAME":"SARAL","OBJECT_ID":"2013-009A","EPOCH":"2026-04-05T20:03:09.817920","MEAN_MOTION":14.32838133,"ECCENTRICITY":0.0002764,"INCLINATION":98.5564,"RA_OF_ASC_NODE":283.3136,"ARG_OF_PERICENTER":120.5738,"MEAN_ANOMALY":239.5719,"EPHEMERIS_TYPE":0,"CLASSIFICATION_TYPE":"U","NORAD_CAT_ID":39086,"ELEMENT_SET_NO":999,"REV_AT_EPOCH":68524,"BSTAR":6.8712e-5,"MEAN_MOTION_DOT":1.44e-6,"MEAN_MOTION_DDOT":0},{"OBJECT_NAME":"GAOFEN-1","OBJECT_ID":"2013-018A","EPOCH":"2026-04-05T21:22:45.384384","MEAN_MOTION":14.7653229,"ECCENTRICITY":0.0018177,"INCLINATION":97.9132,"RA_OF_ASC_NODE":169.4142,"ARG_OF_PERICENTER":135.7073,"MEAN_ANOMALY":224.5595,"EPHEMERIS_TYPE":0,"CLASSIFICATION_TYPE":"U","NORAD_CAT_ID":39150,"ELEMENT_SET_NO":999,"REV_AT_EPOCH":69757,"BSTAR":0.00016994,"MEAN_MOTION_DOT":1.137e-5,"MEAN_MOTION_DDOT":0},{"OBJECT_NAME":"VNREDSAT 1","OBJECT_ID":"2013-021B","EPOCH":"2026-04-05T19:42:35.521344","MEAN_MOTION":14.64933049,"ECCENTRICITY":0.0001346,"INCLINATION":97.9154,"RA_OF_ASC_NODE":151.9864,"ARG_OF_PERICENTER":80.4403,"MEAN_ANOMALY":279.6953,"EPHEMERIS_TYPE":0,"CLASSIFICATION_TYPE":"U","NORAD_CAT_ID":39160,"ELEMENT_SET_NO":999,"REV_AT_EPOCH":68969,"BSTAR":0.00020194,"MEAN_MOTION_DOT":1.035e-5,"MEAN_MOTION_DDOT":0},{"OBJECT_NAME":"ARIRANG-5 (KOMPSAT-5)","OBJECT_ID":"2013-042A","EPOCH":"2026-04-05T19:19:12.280800","MEAN_MOTION":15.04517583,"ECCENTRICITY":0.0004309,"INCLINATION":97.6197,"RA_OF_ASC_NODE":283.5142,"ARG_OF_PERICENTER":41.1162,"MEAN_ANOMALY":319.0388,"EPHEMERIS_TYPE":0,"CLASSIFICATION_TYPE":"U","NORAD_CAT_ID":39227,"ELEMENT_SET_NO":999,"REV_AT_EPOCH":69297,"BSTAR":0.00022162,"MEAN_MOTION_DOT":3.044e-5,"MEAN_MOTION_DDOT":0},{"OBJECT_NAME":"SKYSAT-A","OBJECT_ID":"2013-066C","EPOCH":"2026-04-05T16:40:40.109952","MEAN_MOTION":15.12563064,"ECCENTRICITY":0.0021139,"INCLINATION":97.389,"RA_OF_ASC_NODE":147.3945,"ARG_OF_PERICENTER":201.1397,"MEAN_ANOMALY":158.8962,"EPHEMERIS_TYPE":0,"CLASSIFICATION_TYPE":"U","NORAD_CAT_ID":39418,"ELEMENT_SET_NO":999,"REV_AT_EPOCH":67752,"BSTAR":0.00027836,"MEAN_MOTION_DOT":4.816e-5,"MEAN_MOTION_DDOT":0},{"OBJECT_NAME":"DUBAISAT-2","OBJECT_ID":"2013-066D","EPOCH":"2026-04-05T21:38:22.643808","MEAN_MOTION":15.09663185,"ECCENTRICITY":0.0009437,"INCLINATION":97.4557,"RA_OF_ASC_NODE":87.9787,"ARG_OF_PERICENTER":285.2634,"MEAN_ANOMALY":74.7552,"EPHEMERIS_TYPE":0,"CLASSIFICATION_TYPE":"U","NORAD_CAT_ID":39419,"ELEMENT_SET_NO":999,"REV_AT_EPOCH":67548,"BSTAR":0.00032805,"MEAN_MOTION_DOT":5.224e-5,"MEAN_MOTION_DDOT":0},{"OBJECT_NAME":"GPM-CORE","OBJECT_ID":"2014-009C","EPOCH":"2026-04-05T20:01:23.432736","MEAN_MOTION":15.44356097,"ECCENTRICITY":0.001294,"INCLINATION":64.9729,"RA_OF_ASC_NODE":190.5403,"ARG_OF_PERICENTER":255.3039,"MEAN_ANOMALY":104.6667,"EPHEMERIS_TYPE":0,"CLASSIFICATION_TYPE":"U","NORAD_CAT_ID":39574,"ELEMENT_SET_NO":999,"REV_AT_EPOCH":68663,"BSTAR":0.0003259,"MEAN_MOTION_DOT":0.00014942,"MEAN_MOTION_DDOT":0},{"OBJECT_NAME":"SENTINEL-1A","OBJECT_ID":"2014-016A","EPOCH":"2026-04-05T19:39:17.292960","MEAN_MOTION":14.59196887,"ECCENTRICITY":0.0001371,"INCLINATION":98.1809,"RA_OF_ASC_NODE":104.4001,"ARG_OF_PERICENTER":83.0107,"MEAN_ANOMALY":277.1249,"EPHEMERIS_TYPE":0,"CLASSIFICATION_TYPE":"U","NORAD_CAT_ID":39634,"ELEMENT_SET_NO":999,"REV_AT_EPOCH":63946,"BSTAR":-2.6319e-5,"MEAN_MOTION_DOT":-1.7e-6,"MEAN_MOTION_DDOT":0},{"OBJECT_NAME":"KAZEOSAT 1","OBJECT_ID":"2014-024A","EPOCH":"2026-04-05T20:39:44.932608","MEAN_MOTION":14.42051595,"ECCENTRICITY":0.0001143,"INCLINATION":98.324,"RA_OF_ASC_NODE":170.0956,"ARG_OF_PERICENTER":100.6601,"MEAN_ANOMALY":259.4717,"EPHEMERIS_TYPE":0,"CLASSIFICATION_TYPE":"U","NORAD_CAT_ID":39731,"ELEMENT_SET_NO":999,"REV_AT_EPOCH":62813,"BSTAR":0.00012108,"MEAN_MOTION_DOT":3.55e-6,"MEAN_MOTION_DDOT":0},{"OBJECT_NAME":"ALOS-2","OBJECT_ID":"2014-029A","EPOCH":"2026-04-05T21:46:23.973888","MEAN_MOTION":14.79453646,"ECCENTRICITY":0.0001834,"INCLINATION":97.9197,"RA_OF_ASC_NODE":194.1086,"ARG_OF_PERICENTER":101.3157,"MEAN_ANOMALY":258.8261,"EPHEMERIS_TYPE":0,"CLASSIFICATION_TYPE":"U","NORAD_CAT_ID":39766,"ELEMENT_SET_NO":999,"REV_AT_EPOCH":64089,"BSTAR":2.8646e-5,"MEAN_MOTION_DOT":1.62e-6,"MEAN_MOTION_DDOT":0},{"OBJECT_NAME":"KAZEOSAT 2","OBJECT_ID":"2014-033A","EPOCH":"2026-04-05T19:34:22.444320","MEAN_MOTION":14.85386092,"ECCENTRICITY":0.0008082,"INCLINATION":97.5461,"RA_OF_ASC_NODE":299.2297,"ARG_OF_PERICENTER":188.3648,"MEAN_ANOMALY":171.7434,"EPHEMERIS_TYPE":0,"CLASSIFICATION_TYPE":"U","NORAD_CAT_ID":40010,"ELEMENT_SET_NO":999,"REV_AT_EPOCH":63821,"BSTAR":0.00011744,"MEAN_MOTION_DOT":9.61e-6,"MEAN_MOTION_DDOT":0},{"OBJECT_NAME":"HODOYOSHI-4","OBJECT_ID":"2014-033B","EPOCH":"2026-04-05T19:31:59.968992","MEAN_MOTION":14.87951895,"ECCENTRICITY":0.0023532,"INCLINATION":97.5455,"RA_OF_ASC_NODE":284.1346,"ARG_OF_PERICENTER":181.8303,"MEAN_ANOMALY":178.2832,"EPHEMERIS_TYPE":0,"CLASSIFICATION_TYPE":"U","NORAD_CAT_ID":40011,"ELEMENT_SET_NO":999,"REV_AT_EPOCH":63804,"BSTAR":0.00021273,"MEAN_MOTION_DOT":1.907e-5,"MEAN_MOTION_DDOT":0},{"OBJECT_NAME":"DEIMOS-2","OBJECT_ID":"2014-033D","EPOCH":"2026-04-05T21:32:45.880800","MEAN_MOTION":14.93528688,"ECCENTRICITY":0.0001299,"INCLINATION":97.5929,"RA_OF_ASC_NODE":332.896,"ARG_OF_PERICENTER":107.9241,"MEAN_ANOMALY":252.2121,"EPHEMERIS_TYPE":0,"CLASSIFICATION_TYPE":"U","NORAD_CAT_ID":40013,"ELEMENT_SET_NO":999,"REV_AT_EPOCH":62693,"BSTAR":0.00021904,"MEAN_MOTION_DOT":2.253e-5,"MEAN_MOTION_DDOT":0},{"OBJECT_NAME":"HODOYOSHI-3","OBJECT_ID":"2014-033F","EPOCH":"2026-04-05T10:16:12.512640","MEAN_MOTION":14.8522392,"ECCENTRICITY":0.00318294,"INCLINATION":97.6343,"RA_OF_ASC_NODE":261.4326,"ARG_OF_PERICENTER":232.6159,"MEAN_ANOMALY":127.2158,"EPHEMERIS_TYPE":0,"CLASSIFICATION_TYPE":"U","NORAD_CAT_ID":40015,"ELEMENT_SET_NO":999,"REV_AT_EPOCH":63682,"BSTAR":0.0002399869,"MEAN_MOTION_DOT":2.023e-5,"MEAN_MOTION_DDOT":0},{"OBJECT_NAME":"SPOT 7","OBJECT_ID":"2014-034A","EPOCH":"2026-04-05T20:31:59.932992","MEAN_MOTION":14.60896098,"ECCENTRICITY":0.000162,"INCLINATION":98.0688,"RA_OF_ASC_NODE":160.1928,"ARG_OF_PERICENTER":89.6844,"MEAN_ANOMALY":270.4543,"EPHEMERIS_TYPE":0,"CLASSIFICATION_TYPE":"U","NORAD_CAT_ID":40053,"ELEMENT_SET_NO":999,"REV_AT_EPOCH":62657,"BSTAR":0.00016359,"MEAN_MOTION_DOT":7.55e-6,"MEAN_MOTION_DDOT":0},{"OBJECT_NAME":"SKYSAT-B","OBJECT_ID":"2014-037D","EPOCH":"2026-04-05T20:00:00.276192","MEAN_MOTION":14.87837532,"ECCENTRICITY":0.0006314,"INCLINATION":98.3775,"RA_OF_ASC_NODE":50.7149,"ARG_OF_PERICENTER":141.6421,"MEAN_ANOMALY":218.5244,"EPHEMERIS_TYPE":0,"CLASSIFICATION_TYPE":"U","NORAD_CAT_ID":40072,"ELEMENT_SET_NO":999,"REV_AT_EPOCH":63520,"BSTAR":0.00027048,"MEAN_MOTION_DOT":2.412e-5,"MEAN_MOTION_DDOT":0}]
