LANDSAT 8               
1 39084U 13008A   26095.85333593  .00000479  00000+0  11627-3 0  9996
2 39084  98.1872 167.1265 0001215  91.1523 268.9815 14.57111691687364
SARAL                   
1 39086U 13009A   26095.83553030  .00000144  00000+0  68712-4 0  9994
2 39086  98.5564 283.3136 0002764 120.5738 239.5719 14.32838133685243
GAOFEN-1                
1 39150U 13018A   26095.89080306  .00001137  00000+0  16994-3 0  9990
2 39150  97.9132 169.4142 0018177 135.7073 224.5595 14.76532290697573
VNREDSAT 1              
1 39160U 13021B   26095.82124446  .00001035  00000+0  20194-3 0  9996
2 39160  97.9154 151.9864 0001346  80.4403 279.6953 14.64933049689695
ARIRANG-5 (KOMPSAT-5)   
1 39227U 13042A   26095.80500325  .00003044  00000+0  22162-3 0  9994
2 39227  97.6197 283.5142 0004309  41.1162 319.0388 15.04517583692974
SKYSAT-A                
1 39418U 13066C   26095.69490868  .00004816  00000+0  27836-3 0  9990
2 39418  97.3890 147.3945 0021139 201.1397 158.8962 15.12563064677524
DUBAISAT-2              
1 39419U 13066D   26095.90165097  .00005224  00000+0  32805-3 0  9994
2 39419  97.4557  87.9787 0009437 285.2634  74.7552 15.09663185675488
GPM-CORE                
1 39574U 14009C   26095.83429899  .00014942  00000+0  32590-3 0  9997
2 39574  64.9729 190.5403 0012940 255.3039 104.6667 15.44356097686635
SENTINEL-1A             
1 39634U 14016A   26095.81895015 -.00000170  00000+0 -26319-4 0  9990
2 39634  98.1809 104.4001 0001371  83.0107 277.1249 14.59196887639461
KAZEOSAT 1              
1 39731U 14024A   26095.86093672  .00000355  00000+0  12108-3 0  9994
2 39731  98.3240 170.0956 0001143 100.6601 259.4717 14.42051595628133
ALOS-2                  
1 39766U 14029A   26095.90722192  .00000162  00000+0  28646-4 0  9999
2 39766  97.9197 194.1086 0001834 101.3157 258.8261 14.79453646640896
KAZEOSAT 2              
1 40010U 14033A   26095.81553755  .00000961  00000+0  11744-3 0  9992
2 40010  97.5461 299.2297 0008082 188.3648 171.7434 14.85386092638218
HODOYOSHI-4             
1 40011U 14033B   26095.81388853  .00001907  00000+0  21273-3 0  9997
2 40011  97.5455 284.1346 0023532 181.8303 178.2832 14.87951895638049
DEIMOS-2                
1 40013U 14033D   26095.89775325  .00002253  00000+0  21904-3 0  9997
2 40013  97.5929 332.8960 0001299 107.9241 252.2121 14.93528688626932
HODOYOSHI-3             
1 40015U 14033F   26095.42792260  .00002023  00000+0  23999-3 0  9996
2 40015  97.6343 261.4326 0031829 232.6159 127.2158 14.85223920636826
SPOT 7                  
1 40053U 14034A   26095.85555478  .00000755  00000+0  16359-3 0  9996
2 40053  98.0688 160.1928 0001620  89.6844 270.4543 14.60896098626570
SKYSAT-B                
1 40072U 14037D   26095.83333653  .00002412  00000+0  27048-3 0  9996
2 40072  98.3775  50.7149 0006314 141.6421 218.5244 14.87837532635203
